ONEWEB-0490             
1 54113U 22138A   22325.33334491 -.00978931  00000+0 -17160+0 0  9996
2 54113  87.4645 207.3810 0012755 173.0108  61.5235 14.70627294  5268
ONEWEB-0492             
1 54114U 22138B   22325.33334491 -.00957611  00000+0 -16410+0 0  9996
2 54114  87.4636 207.3846 0013677 179.5480  20.2391 14.72018800  5260
ONEWEB-0495             
1 54115U 22138C   22325.33334491 -.01041918  00000+0 -20088+0 0  9998
2 54115  87.4438 207.4093 0013676 199.1920 155.8459 14.66612791  5253
ONEWEB-0497             
1 54116U 22138D   22325.33334491 -.00992596  00000+0 -18313+0 0  9993
2 54116  87.4517 207.3980 0014239 184.4475 291.1664 14.68406368  5260
ONEWEB-0499             
1 54117U 22138E   22325.33334491 -.01026501  00000+0 -18449+0 0  9999
2 54117  87.4588 207.3916 0013982 176.5383 351.7144 14.69656012  5262
ONEWEB-0500             
1 54118U 22138F   22325.33334491 -.01000178  00000+0 -16944+0 0  9990
2 54118  87.4689 207.3689 0011068 170.7792 153.5903 14.72191041  5266
ONEWEB-0501             
1 54119U 22138G   22325.33334491 -.01029384  00000+0 -19292+0 0  9990
2 54119  87.4507 207.3919 0014451 187.7515 242.4085 14.67818507  5257
ONEWEB-0502             
1 54120U 22138H   22325.33334491 -.00976961  00000+0 -16869+0 0  9990
2 54120  87.4657 207.3758 0011889 169.4019 102.8804 14.71289120  5261
ONEWEB-0503             
1 54121U 22138J   22325.33334491 -.01026371  00000+0 -18492+0 0  9997
2 54121  87.4590 207.3852 0014151 176.7161   3.0903 14.69545962  5265
ONEWEB-0504             
1 54122U 22138K   22325.50001157 -.00908964  00000+0 -15755+0 0  9992
2 54122  87.4689 207.3268 0011230 170.9927 293.2852 14.71392511  5288
ONEWEB-0505             
1 54123U 22138L   22325.33334491 -.00994265  00000+0 -18908+0 0  9996
2 54123  87.4486 207.3970 0014095 194.9984 184.7143 14.67076582  5251
ONEWEB-0506             
1 54124U 22138M   22325.33334491 -.01018522  00000+0 -19083+0 0  9996
2 54124  87.4544 207.4024 0015903 195.6630 213.2992 14.67779769  5250
ONEWEB-0507             
1 54125U 22138N   22325.33334491 -.00996131  00000+0 -16573+0 0  9998
2 54125  87.4716 207.3661 0010652 173.6139 193.2522 14.72966578  5263
ONEWEB-0508             
1 54126U 22138P   22325.33334491 -.00998025  00000+0 -17414+0 0  9998
2 54126  87.4655 207.3835 0012625 175.2313  65.0668 14.70884575  5264
ONEWEB-0509             
1 54127U 22138Q   22325.33334491 -.01034467  00000+0 -19293+0 0  9998
2 54127  87.4463 207.3992 0014482 185.8724 267.3803 14.68047566  5257
ONEWEB-0510             
1 54128U 22138R   22325.33334491 -.00051380  00000+0 -51284-2 0  9990
2 54128  87.1041 206.9828 0010128 186.6933 174.8289 14.91879072  5277
ONEWEB-0511             
1 54129U 22138S   22325.33334491 -.01003039  00000+0 -17318+0 0  9997
2 54129  87.4617 207.3780 0011637 170.4336 107.4174 14.71369132  5269
ONEWEB-0512             
1 54130U 22138T   22325.50001157 -.00894167  00000+0 -16823+0 0  9997
2 54130  87.4521 207.3349 0014714 184.3664  74.8503 14.67709042  5281
ONEWEB-0513             
1 54131U 22138U   22325.33334491 -.01430961  00000+0 -55116+0 0  9996
2 54131  87.5232 207.7862 0010458 183.7457  45.3368 14.33774273  5205
ONEWEB-0514             
1 54132U 22138V   22325.33334491 -.01025839  00000+0 -17718+0 0  9997
2 54132  87.4637 207.3710 0011711 172.4672 116.0657 14.71417250  5263
ONEWEB-0515             
1 54133U 22138W   22325.33334491 -.00051778  00000+0 -51993-2 0  9994
2 54133  87.0925 206.9654 0010585 178.6371 158.3330 14.91636742  5273
ONEWEB-0516             
1 54134U 22138X   22325.33334491 -.01023808  00000+0 -17822+0 0  9999
2 54134  87.4645 207.3794 0012036 172.2164  90.4862 14.71066969  5261
ONEWEB-0517             
1 54135U 22138Y   22325.33334491 -.01008901  00000+0 -17885+0 0  9996
2 54135  87.4604 207.3810 0013376 175.9840  33.0268 14.70214913  5261
ONEWEB-0518             
1 54136U 22138Z   22325.33334491 -.01019367  00000+0 -18658+0 0  9994
2 54136  87.4584 207.3939 0014328 181.2232 315.6648 14.68831420  5260
ONEWEB-0519             
1 54137U 22138AA  22325.33334491 -.00956420  00000+0 -16155+0 0  9994
2 54137  87.4712 207.3733 0011659 172.2076 165.2276 14.72664184  5268
ONEWEB-0520             
1 54138U 22138AB  22325.33334491 -.01026546  00000+0 -18183+0 0  9996
2 54138  87.4640 207.3875 0013214 175.7742  43.5922 14.70302705  5265
ONEWEB-0521             
1 54139U 22138AC  22325.33334491 -.00993934  00000+0 -19146+0 0  9990
2 54139  87.4437 207.4031 0013973 200.1495 141.7030 14.66508491  5250
ONEWEB-0522             
1 54140U 22138AD  22325.33334491 -.00991873  00000+0 -18520+0 0  9997
2 54140  87.4544 207.4007 0015009 187.2852 257.8118 14.67866878  5251
ONEWEB-0523             
1 54141U 22138AE  22325.33334491 -.00051462  00000+0 -51445-2 0  9995
2 54141  87.0898 206.9766 0009844 185.7289 170.2214 14.91819844  5278
ONEWEB-0524             
1 54142U 22138AF  22325.33334491 -.00051507  00000+0 -51524-2 0  9994
2 54142  87.0931 206.9676 0009902 184.8082 167.3605 14.91793109  5279
ONEWEB-0525             
1 54143U 22138AG  22325.33334491 -.00985225  00000+0 -17700+0 0  9993
2 54143  87.4583 207.3896 0013395 175.4950  12.4120 14.69563359  5265
ONEWEB-0526             
1 54144U 22138AH  22325.33334491 -.01012408  00000+0 -19033+0 0  9990
2 54144  87.4477 207.3957 0014978 189.7164 234.7259 14.67625166  5253
ONEWEB-0529             
1 54145U 22138AJ  22325.33334491 -.01021525  00000+0 -18567+0 0  9992
2 54145  87.4572 207.3888 0013933 185.4888 305.6408 14.69150172  5266
ONEWEB-0531             
1 54146U 22138AK  22325.33334491 -.00051657  00000+0 -51791-2 0  9990
2 54146  87.0888 206.9801 0009941 185.0039 158.5385 14.91703439  5276
ONEWEB-0535             
1 54147U 22138AL  22325.33334491 -.00964275  00000+0 -16262+0 0  9991
2 54147  87.4723 207.3700 0010919 169.7850 170.7340 14.72767132  5264
ONEWEB-0536             
1 54148U 22138AM  22325.33334491 -.00051937  00000+0 -52243-2 0  9996
2 54148  87.0961 207.0021 0010214 178.4274 150.8806 14.91571663  5273
GSLV R/B                
1 54149U 22138AN  22325.15333597  .00001080  00000+0  11604-3 0  9992
2 54149  87.3896 207.3127 0025493 171.5952 188.5707 14.87308382  4375
GONETS-M 23             
1 54150U 22139A   22325.19819589  .00000010  00000+0  00000+0 0  9995
2 54150  82.5069  78.5774 0017138 181.0801 179.0252 12.41995141  3651
GONETS-M 24             
1 54151U 22139B   22325.25726053  .00000010  00000+0  00000+0 0  9996
2 54151  82.5004  78.4906 0016492 193.0060 167.0639 12.42875042  3664
GONETS-M 25             
1 54152U 22139C   22325.56994656  .00000010  00000+0  00000+0 0  9997
2 54152  82.5026  78.2940 0014245 194.7340 165.3327 12.43969041  3702
PROGRESS-MS 21          
1 54155U 22140A   22324.43010292  .00010100  00000+0  18398-3 0  9996
2 54155  51.6438 282.5846 0006965  94.1712  47.5689 15.50101142369416
STARLINK-5290           
1 54157U 22141A   22325.25001157 -.01211537  00000+0 -17769-1 0  9999
2 54157  53.2175  24.4557 0001653  41.3336 166.6676 15.57889532  3834
STARLINK-5297           
1 54158U 22141B   22325.58334491 -.01211491  00000+0 -18430-1 0  9991
2 54158  53.2177  22.8554 0001342  53.0748 220.6537 15.56924338  3883
STARLINK-5294           
1 54159U 22141C   22325.25001157 -.01216556  00000+0 -17899-1 0  9991
2 54159  53.2177  24.4614 0001536  52.9117 152.3045 15.57819804  3834
STARLINK-5233           
1 54160U 22141D   22324.91667824  .00035268  00000+0  25501-3 0  9991
2 54160  53.2194  25.7209 0002992  18.4146 294.3871 15.73163966  3782
STARLINK-5269           
1 54161U 22141E   22325.58334491 -.01197361  00000+0 -18151-1 0  9994
2 54161  53.2176  22.8498 0001380  54.4231 222.0744 15.56982278  3880
STARLINK-5273           
1 54162U 22141F   22325.58334491 -.01205408  00000+0 -18230-1 0  9995
2 54162  53.2177  22.8439 0001450  51.0351 228.3854 15.57064282  3889
STARLINK-5161           
1 54163U 22141G   22325.58334491  .00102269  00000+0  72557-3 0  9998
2 54163  53.2191  22.4753 0003685   9.1197  97.0607 15.73151678  3897
STARLINK-5278           
1 54164U 22141H   22325.25001157  .00026818  00000+0  19519-3 0  9997
2 54164  53.2192  24.1236 0003061   8.5391   8.1652 15.73160596  3848
STARLINK-5279           
1 54165U 22141J   22325.25001157 -.01218459  00000+0 -17831-1 0  9998
2 54165  53.2177  24.4501 0001477  53.2990 157.4218 15.57966669  3833
STARLINK-5280           
1 54166U 22141K   22325.58334491 -.00009388  00000+0 -62426-4 0  9996
2 54166  53.2187  22.4715 0003071  10.5626  96.2444 15.73230440  3890
STARLINK-5243           
1 54167U 22141L   22325.58334491 -.01149085  00000+0 -17266-1 0  9996
2 54167  53.2191  22.8443 0001238  81.8108 200.3831 15.57098213  3886
STARLINK-5245           
1 54168U 22141M   22325.25001157  .00029921  00000+0  21704-3 0  9998
2 54168  53.2189  24.1178 0003037  13.4348   5.6280 15.73176061  3846
STARLINK-5282           
1 54169U 22141N   22325.25001157  .00106759  00000+0  75682-3 0  9998
2 54169  53.2188  24.1236 0003069   7.6522   8.4177 15.73154086  3844
STARLINK-5155           
1 54170U 22141P   22325.25001157  .00031591  00000+0  22912-3 0  9999
2 54170  53.2190  24.1186 0003176  14.1349   5.5507 15.73149004  3830
STARLINK-5229           
1 54171U 22141Q   22324.91667824  .00038151  00000+0  27532-3 0  9993
2 54171  53.2191  25.7748 0002935  10.1886 276.3721 15.73170801  3786
STARLINK-5117           
1 54172U 22141R   22325.25001157 -.00066857  00000+0 -47462-3 0  9993
2 54172  53.2185  24.1120 0003322   4.3772  16.4393 15.73245207  3845
STARLINK-5242           
1 54173U 22141S   22325.58334491  .00104731  00000+0  74232-3 0  9997
2 54173  53.2186  22.4707 0003358  14.3530  93.0589 15.73165274  3899
STARLINK-5248           
1 54174U 22141T   22325.25001157  .00030419  00000+0  22046-3 0  9999
2 54174  53.2172  23.3217 0002193  27.5232  17.6626 15.73189513  3843
